COMMENT,ORIGINATOR,NORAD_CAT_ID,OBJECT_NAME,OBJECT_TYPE,CLASSIFICATION_TYPE,INTLDES,EPOCH,EPOCH_MICROSECONDS,MEAN_MOTION,ECCENTRICITY,INCLINATION,RA_OF_ASC_NODE,ARG_OF_PERICENTER,MEAN_ANOMALY,EPHEMERIS_TYPE,ELEMENT_SET_NO,REV_AT_EPOCH,BSTAR,MEAN_MOTION_DOT,MEAN_MOTION_DDOT,FILE,TLE_LINE0,TLE_LINE1,TLE_LINE2,OBJECT_ID,OBJECT_NUMBER,SEMIMAJOR_AXIS,PERIOD,APOGEE,PERIGEE,DECAYED
"GENERATED VIA SPACETRACK.ORG API","18 SPCS","55087","SPACEBEE-167","PAYLOAD","U","23001CG","2024-04-29 10:20:14","760096","15.39027761","0.0007997","97.4245","185.1363","323.0599","37.0094","0","999","7351","0.0010843","0.00042043","0","4302365","0 SPACEBEE-167","1 55087U 23001CG  24120.43072639  .00042043  00000-0  10843-2 0  9995","2 55087  97.4245 185.1363 0007997 323.0599  37.0094 15.39027761 73518","2023-001CG","55087","6827.120","93.566","454.445","443.525","0"
"GENERATED VIA SPACETRACK.ORG API","18 SPCS","55087","SPACEBEE-167","PAYLOAD","U","23001CG","2024-04-29 18:08:22","371072","15.39056215","0.0008035","97.4244","185.4656","321.4121","38.6549","0","999","7356","0.0010701","0.00041528","0","4302685","0 SPACEBEE-167","1 55087U 23001CG  24120.75581448  .00041528  00000-0  10701-2 0  9993","2 55087  97.4244 185.4656 0008035 321.4121  38.6549 15.39056215 73565","2023-001CG","55087","6827.036","93.564","454.386","443.415","0"
"GENERATED VIA SPACETRACK.ORG API","18 SPCS","55087","SPACEBEE-167","PAYLOAD","U","23001CG","2024-04-29 22:49:14","677248","15.39070358","0.000799","97.4244","185.663","320.3685","39.6976","0","999","7359","0.0010171","0.00039474","0","4302696","0 SPACEBEE-167","1 55087U 23001CG  24120.95086432  .00039474  00000-0  10171-2 0  9996","2 55087  97.4244 185.6630 0007990 320.3685  39.6976 15.39070358 73593","2023-001CG","55087","6826.994","93.563","454.314","443.404","0"
"GENERATED VIA SPACETRACK.ORG API","18 SPCS","55087","SPACEBEE-167","PAYLOAD","U","23001CG","2024-04-30 03:30:06","827040","15.39090777","0.0007984","97.4244","185.8607","319.3252","40.7396","0","999","7362","0.0011018","0.00042815","0","4303298","0 SPACEBEE-167","1 55087U 23001CG  24121.14591235  .00042815  00000-0  11018-2 0  9994","2 55087  97.4244 185.8607 0007984 319.3252  40.7396 15.39090777 73620","2023-001CG","55087","6826.934","93.562","454.249","443.348","0"
"GENERATED VIA SPACETRACK.ORG API","18 SPCS","55087","SPACEBEE-167","PAYLOAD","U","23001CG","2024-05-01 02:54:24","955488","15.39174885","0.0008011","97.4245","186.8492","315.5627","44.4975","0","999","7377","0.001273","0.00049661","0","4303860","0 SPACEBEE-167","1 55087U 23001CG  24122.12112217  .00049661  00000-0  12730-2 0  9990","2 55087  97.4245 186.8492 0008011 315.5627  44.4975 15.39174885 73773","2023-001CG","55087","6826.685","93.557","454.019","443.081","0"
"GENERATED VIA SPACETRACK.ORG API","18 SPCS","55087","SPACEBEE-167","PAYLOAD","U","23001CG","2024-05-01 02:54:24","955488","15.39174885","0.0008011","97.4245","186.8492","315.5627","44.4975","0","999","7377","0.001273","0.00049661","0","4304190","0 SPACEBEE-167","1 55087U 23001CG  24122.12112217  .00049661  00000-0  12730-2 0  9990","2 55087  97.4245 186.8492 0008011 315.5627  44.4975 15.39174885 73773","2023-001CG","55087","6826.685","93.557","454.019","443.081","0"
"GENERATED VIA SPACETRACK.ORG API","18 SPCS","55087","SPACEBEE-167","PAYLOAD","U","23001CG","2024-05-01 21:37:48","100224","15.39237895","0.0007975","97.4247","187.6399","312.2456","47.8112","0","999","7389","0.0010902","0.00042566","0","4304452","0 SPACEBEE-167","1 55087U 23001CG  24122.90125116  .00042566  00000-0  10902-2 0  9994","2 55087  97.4247 187.6399 0007975 312.2456  47.8112 15.39237895 73896","2023-001CG","55087","6826.499","93.553","453.808","442.920","0"
"GENERATED VIA SPACETRACK.ORG API","18 SPCS","55087","SPACEBEE-167","PAYLOAD","U","23001CG","2024-05-02 03:52:15","119040","15.39264991","0.0007984","97.4247","187.9035","311.1244","48.9312","0","999","7393","0.0011885","0.00046476","0","4304801","0 SPACEBEE-167","1 55087U 23001CG  24123.16128610  .00046476  00000-0  11885-2 0  9990","2 55087  97.4247 187.9035 0007984 311.1244  48.9312 15.39264991 73935","2023-001CG","55087","6826.419","93.551","453.734","442.833","0"
"GENERATED VIA SPACETRACK.ORG API","18 SPCS","55087","SPACEBEE-167","PAYLOAD","U","23001CG","2024-05-02 14:47:31","729344","15.39299173","0.000799","97.4248","188.3649","308.8749","51.1783","0","999","7400","0.0010571","0.00041348","0","4305180","0 SPACEBEE-167","1 55087U 23001CG  24123.61633946  .00041348  00000-0  10571-2 0  9997","2 55087  97.4248 188.3649 0007990 308.8749  51.1783 15.39299173 74009","2023-001CG","55087","6826.318","93.549","453.637","442.728","0"
"GENERATED VIA SPACETRACK.ORG API","18 SPCS","55087","SPACEBEE-167","PAYLOAD","U","23001CG","2024-05-03 03:16:23","430720","15.39355249","0.0008095","97.4251","188.8919","306.4694","53.5805","0","999","7408","0.0011962","0.0004692","0","4306126","0 SPACEBEE-167","1 55087U 23001CG  24124.13638230  .00046920  00000-0  11962-2 0  9992","2 55087  97.4251 188.8919 0008095 306.4694  53.5805 15.39355249 74084","2023-001CG","55087","6826.152","93.546","453.542","442.491","0"
"GENERATED VIA SPACETRACK.ORG API","18 SPCS","55087","SPACEBEE-167","PAYLOAD","U","23001CG","2024-05-03 17:18:49","603680","15.39415116","0.0008068","97.4253","189.485","304.2771","55.771","0","999","7417","0.00099976","0.00039239","0","4306364","0 SPACEBEE-167","1 55087U 23001CG  24124.72140745  .00039239  00000-0  99976-3 0  9993","2 55087  97.4253 189.4850 0008068 304.2771  55.7710 15.39415116 74178","2023-001CG","55087","6825.975","93.542","453.347","442.333","0"
"GENERATED VIA SPACETRACK.ORG API","18 SPCS","55087","SPACEBEE-167","PAYLOAD","U","23001CG","2024-05-03 21:59:37","932864","15.39431836","0.0008027","97.4251","189.6828","303.2366","56.8109","0","999","7420","0.00096232","0.00037779","0","4306422","0 SPACEBEE-167","1 55087U 23001CG  24124.91641126  .00037779  00000-0  96232-3 0  9992","2 55087  97.4251 189.6828 0008027 303.2366  56.8109 15.39431836 74202","2023-001CG","55087","6825.925","93.541","453.269","442.311","0"
"GENERATED VIA SPACETRACK.ORG API","18 SPCS","55087","SPACEBEE-167","PAYLOAD","U","23001CG","2024-05-05 03:38:00","357792","15.39532675","0.0008063","97.4252","190.9346","297.6659","62.3768","0","999","7439","0.00112","0.00044166","0","4307695","0 SPACEBEE-167","1 55087U 23001CG  24126.15139303  .00044166  00000-0  11200-2 0  9998","2 55087  97.4252 190.9346 0008063 297.6659  62.3768 15.39532675 74390","2023-001CG","55087","6825.627","93.535","452.996","441.989","0"
"GENERATED VIA SPACETRACK.ORG API","18 SPCS","55087","SPACEBEE-167","PAYLOAD","U","23001CG","2024-05-05 14:33:10","122624","15.39567483","0.0008071","97.425","191.396","295.7008","64.3403","0","999","7446","0.0010644","0.00042005","0","4307968","0 SPACEBEE-167","1 55087U 23001CG  24126.60636716  .00042005  00000-0  10644-2 0  9999","2 55087  97.4250 191.3960 0008071 295.7008  64.3403 15.39567483 74462","2023-001CG","55087","6825.524","93.533","452.898","441.880","0"
"GENERATED VIA SPACETRACK.ORG API","18 SPCS","55087","SPACEBEE-167","PAYLOAD","U","23001CG","2024-05-05 22:21:07","953120","15.39594908","0.0008072","97.425","191.7256","294.3464","65.6939","0","999","7451","0.0011374","0.00044949","0","4308260","0 SPACEBEE-167","1 55087U 23001CG  24126.93134205  .00044949  00000-0  11374-2 0  9991","2 55087  97.4250 191.7256 0008072 294.3464  65.6939 15.39594908 74512","2023-001CG","55087","6825.443","93.531","452.818","441.799","0"
"GENERATED VIA SPACETRACK.ORG API","18 SPCS","55087","SPACEBEE-167","PAYLOAD","U","23001CG","2024-05-06 03:01:54","371136","15.39615557","0.0008101","97.4249","191.9236","293.6039","66.4356","0","999","7454","0.001226","0.00048513","0","4309203","0 SPACEBEE-167","1 55087U 23001CG  24127.12632374  .00048513  00000-0  12260-2 0  9999","2 55087  97.4249 191.9236 0008101 293.6039  66.4356 15.39615557 74542","2023-001CG","55087","6825.382","93.530","452.777","441.718","0"
"GENERATED VIA SPACETRACK.ORG API","18 SPCS","55087","SPACEBEE-167","PAYLOAD","U","23001CG","2024-05-06 17:04:12","289440","15.39677166","0.0008099","97.425","192.5169","291.4262","68.612","0","999","7463","0.0013395","0.00053151","0","4309199","0 SPACEBEE-167","1 55087U 23001CG  24127.71125335  .00053151  00000-0  13395-2 0  9992","2 55087  97.4250 192.5169 0008099 291.4262  68.6120 15.39677166 74633","2023-001CG","55087","6825.200","93.526","452.593","441.537","0"
"GENERATED VIA SPACETRACK.ORG API","18 SPCS","55087","SPACEBEE-167","PAYLOAD","U","23001CG","2024-05-06 21:44:57","802848","15.39697084","0.0008089","97.4247","192.7145","290.2802","69.7574","0","999","7466","0.0013509","0.00053642","0","4309210","0 SPACEBEE-167","1 55087U 23001CG  24127.90622457  .00053642  00000-0  13509-2 0  9992","2 55087  97.4247 192.7145 0008089 290.2802  69.7574 15.39697084 74660","2023-001CG","55087","6825.141","93.525","452.527","441.485","0"
"GENERATED VIA SPACETRACK.ORG API","18 SPCS","55087","SPACEBEE-167","PAYLOAD","U","23001CG","2024-05-07 10:13:38","56224","15.39761726","0.0008119","97.4245","193.2418","288.0355","72.0006","0","999","7474","0.0016297","0.00064963","0","4309871","0 SPACEBEE-167","1 55087U 23001CG  24128.42613491  .00064963  00000-0  16297-2 0  9993","2 55087  97.4245 193.2418 0008119 288.0355  72.0006 15.39761726 74740","2023-001CG","55087","6824.950","93.521","452.356","441.274","0"
"GENERATED VIA SPACETRACK.ORG API","18 SPCS","55087","SPACEBEE-167","PAYLOAD","U","23001CG","2024-05-07 18:01:32","606976","15.39775652","0.0008147","97.4243","193.5714","286.7441","73.2911","0","999","7479","0.0010915","0.0004338","0","4310180","0 SPACEBEE-167","1 55087U 23001CG  24128.75107184  .00043380  00000-0  10915-2 0  9997","2 55087  97.4243 193.5714 0008147 286.7441  73.2911 15.39775652 74798","2023-001CG","55087","6824.909","93.520","452.334","441.214","0"
